*******************************************************************************
Ephemeris / WWW_USER Mon Mar 24 11:29:12 2025 Pasadena, USA      / Horizons    
*******************************************************************************
Target body name: 300163 (2006 VW139)             {source: JPL#20}
Center body name: Earth (399)                     {source: DE441}
Center-site name: Mauna Kea
*******************************************************************************
Start time      : A.D. 2018-Aug-09 05:04:00.0000 UT      
Stop  time      : A.D. 2018-Aug-09 15:50:00.0000 UT      
Step-size       : 1 minutes
*******************************************************************************
Target pole/equ : undefined
Target radii    : undefined                                                    
Center geodetic : 204.5278, 19.8260847, 4.21024   {E-lon(deg),Lat(deg),Alt(km)}
Center cylindric: 204.5278, 6006.35451, 2151.0229 {E-lon(deg),Dxy(km),Dz(km)}
Center pole/equ : ITRF93                          {East-longitude positive}
Center radii    : 6378.137, 6378.137, 6356.752 km {Equator_a, b, pole_c}       
Target primary  : Sun
Vis. interferer : MOON (R_eq= 1737.400) km        {source: DE441}
Rel. light bend : Sun                             {source: DE441}
Rel. lght bnd GM: 1.3271E+11 km^3/s^2                                          
Small-body perts: Yes                             {source: SB441-N16}
Atmos refraction: NO (AIRLESS)
RA format       : HMS
Time format     : CAL 
Calendar mode   : Mixed Julian/Gregorian
RTS-only print  : NO       
EOP file        : eop.250321.p250617                                           
EOP coverage    : DATA-BASED 1962-JAN-20 TO 2025-MAR-21. PREDICTS-> 2025-JUN-16
Units conversion: 1 au= 149597870.700 km, c= 299792.458 km/s, 1 day= 86400.0 s 
Table cut-offs 1: Elevation (-90.0deg=NO ),Airmass (>38.000=NO), Daylight (YES)
Table cut-offs 2: Solar elongation (  0.0,180.0=NO ),Local Hour Angle( 0.0=NO )
Table cut-offs 3: RA/DEC angular rate (     0.0=NO )                           
*******************************************************************************
Initial IAU76/J2000 heliocentric ecliptic osculating elements (au, days, deg.):
  EPOCH=  2457991.5 ! 2017-Aug-26.00 (TDB)         Residual RMS= .24052        
   EC= .2010729135113919   QR= 2.43581750533798    TP= 2457700.5743979034      
   OM= 83.18687361565334   W=  281.0057800900049   IN= 3.240211778004737       
  Equivalent ICRF heliocentric cartesian coordinates (au, au/d):
   X= 5.132894709524352E-01  Y= 2.513143937276953E+00  Z= 1.078150377913554E+00
  VX=-1.001562838274837E-02 VY= 3.317467852193382E-03 VZ= 2.080280624827025E-03
Asteroid physical parameters (km, seconds, rotational period in hours):        
   GM= n.a.                RAD= n.a.               ROTPER= 3240.               
   H= 16.21                G= .150                 B-V= n.a.                   
                           ALBEDO= n.a.            STYP= n.a.                  
*******************************************************************************
 Date__(UT)__HR:MN     R.A._________(ICRF)_________DEC
******************************************************
$$SOE
 2018-Aug-09 05:04 C   09 29 59.283080 +16 59 56.43591
 2018-Aug-09 05:05 C   09 29 59.337971 +16 59 56.18054
 2018-Aug-09 05:06 C   09 29 59.392865 +16 59 55.92516
 2018-Aug-09 05:07 C   09 29 59.447762 +16 59 55.66979
 2018-Aug-09 05:08 C   09 29 59.502661 +16 59 55.41441
 2018-Aug-09 05:09 C   09 29 59.557562 +16 59 55.15903
 2018-Aug-09 05:10 C   09 29 59.612466 +16 59 54.90366
 2018-Aug-09 05:11 C   09 29 59.667372 +16 59 54.64829
 2018-Aug-09 05:12 C   09 29 59.722280 +16 59 54.39291
 2018-Aug-09 05:13 C   09 29 59.777191 +16 59 54.13754
 2018-Aug-09 05:14 C   09 29 59.832105 +16 59 53.88217
 2018-Aug-09 05:15 C   09 29 59.887021 +16 59 53.62680
 2018-Aug-09 05:16 C   09 29 59.941939 +16 59 53.37143
 2018-Aug-09 05:17 C   09 29 59.996859 +16 59 53.11606
 2018-Aug-09 05:18 N   09 30 00.051783 +16 59 52.86069
 2018-Aug-09 05:19 N   09 30 00.106708 +16 59 52.60533
 2018-Aug-09 05:20 Ns  09 30 00.161636 +16 59 52.34996
 2018-Aug-09 05:21 N   09 30 00.216566 +16 59 52.09460
 2018-Aug-09 05:22 N   09 30 00.271499 +16 59 51.83923
 2018-Aug-09 05:23 N   09 30 00.326434 +16 59 51.58387
 2018-Aug-09 05:24 N   09 30 00.381372 +16 59 51.32851
 2018-Aug-09 05:25 N   09 30 00.436311 +16 59 51.07315
 2018-Aug-09 05:26 N   09 30 00.491254 +16 59 50.81779
 2018-Aug-09 05:27 N   09 30 00.546198 +16 59 50.56243
 2018-Aug-09 05:28 N   09 30 00.601146 +16 59 50.30708
 2018-Aug-09 05:29 N   09 30 00.656095 +16 59 50.05172
 2018-Aug-09 05:30 N   09 30 00.711047 +16 59 49.79637
 2018-Aug-09 05:31 N   09 30 00.766001 +16 59 49.54102
 2018-Aug-09 05:32 N   09 30 00.820958 +16 59 49.28567
 2018-Aug-09 05:33 N   09 30 00.875917 +16 59 49.03032
 2018-Aug-09 05:34 N   09 30 00.930878 +16 59 48.77498
 2018-Aug-09 05:35 N   09 30 00.985842 +16 59 48.51963
 2018-Aug-09 05:36 N   09 30 01.040808 +16 59 48.26429
 2018-Aug-09 05:37 N   09 30 01.095777 +16 59 48.00895
 2018-Aug-09 05:38 N   09 30 01.150748 +16 59 47.75361
 2018-Aug-09 05:39 N   09 30 01.205721 +16 59 47.49827
 2018-Aug-09 05:40 N   09 30 01.260697 +16 59 47.24294
 2018-Aug-09 05:41 N   09 30 01.315675 +16 59 46.98760
 2018-Aug-09 05:42 N   09 30 01.370655 +16 59 46.73227
 2018-Aug-09 05:43 N   09 30 01.425638 +16 59 46.47694
 2018-Aug-09 05:44 N   09 30 01.480623 +16 59 46.22162
 2018-Aug-09 05:45 N   09 30 01.535610 +16 59 45.96629
 2018-Aug-09 05:46 A   09 30 01.590600 +16 59 45.71097
 2018-Aug-09 05:47 A   09 30 01.645592 +16 59 45.45565
 2018-Aug-09 05:48 A   09 30 01.700587 +16 59 45.20033
 2018-Aug-09 05:49 A   09 30 01.755583 +16 59 44.94502
 2018-Aug-09 05:50 A   09 30 01.810583 +16 59 44.68970
 2018-Aug-09 05:51 A   09 30 01.865584 +16 59 44.43439
 2018-Aug-09 05:52 A   09 30 01.920588 +16 59 44.17909
 2018-Aug-09 05:53 A   09 30 01.975594 +16 59 43.92378
 2018-Aug-09 05:54 A   09 30 02.030602 +16 59 43.66848
 2018-Aug-09 05:55 A   09 30 02.085613 +16 59 43.41318
 2018-Aug-09 05:56 A   09 30 02.140626 +16 59 43.15788
 2018-Aug-09 05:57 A   09 30 02.195642 +16 59 42.90258
 2018-Aug-09 05:58 A   09 30 02.250659 +16 59 42.64729
 2018-Aug-09 05:59 A   09 30 02.305679 +16 59 42.39200
 2018-Aug-09 06:00 A   09 30 02.360702 +16 59 42.13671
 2018-Aug-09 06:01 A   09 30 02.415726 +16 59 41.88143
 2018-Aug-09 06:02 A   09 30 02.470753 +16 59 41.62615
 2018-Aug-09 06:03 A   09 30 02.525783 +16 59 41.37087
 2018-Aug-09 06:04 A   09 30 02.580814 +16 59 41.11560
 2018-Aug-09 06:05 A   09 30 02.635848 +16 59 40.86032
 2018-Aug-09 06:06 A   09 30 02.690884 +16 59 40.60505
 2018-Aug-09 06:07 A   09 30 02.745922 +16 59 40.34979
 2018-Aug-09 06:08 A   09 30 02.800963 +16 59 40.09453
 2018-Aug-09 06:09 A   09 30 02.856006 +16 59 39.83927
 2018-Aug-09 06:10 A   09 30 02.911051 +16 59 39.58401
 2018-Aug-09 06:11 A   09 30 02.966098 +16 59 39.32876
 2018-Aug-09 06:12 A   09 30 03.021148 +16 59 39.07351
 2018-Aug-09 06:13     09 30 03.076200 +16 59 38.81826
 2018-Aug-09 06:14     09 30 03.131254 +16 59 38.56302
 2018-Aug-09 06:15     09 30 03.186311 +16 59 38.30778
 2018-Aug-09 06:16     09 30 03.241369 +16 59 38.05254
 2018-Aug-09 06:17     09 30 03.296430 +16 59 37.79731
 2018-Aug-09 06:18     09 30 03.351493 +16 59 37.54208
 2018-Aug-09 06:19     09 30 03.406559 +16 59 37.28686
 2018-Aug-09 06:20     09 30 03.461626 +16 59 37.03164
 2018-Aug-09 06:21     09 30 03.516696 +16 59 36.77642
 2018-Aug-09 06:22     09 30 03.571768 +16 59 36.52120
 2018-Aug-09 06:23     09 30 03.626842 +16 59 36.26599
 2018-Aug-09 06:24     09 30 03.681919 +16 59 36.01079
 2018-Aug-09 06:25     09 30 03.736997 +16 59 35.75558
 2018-Aug-09 06:26     09 30 03.792078 +16 59 35.50039
 2018-Aug-09 06:27     09 30 03.847161 +16 59 35.24519
 2018-Aug-09 06:28     09 30 03.902246 +16 59 34.99000
 2018-Aug-09 06:29     09 30 03.957333 +16 59 34.73481
 2018-Aug-09 06:30     09 30 04.012423 +16 59 34.47963
 2018-Aug-09 06:31     09 30 04.067515 +16 59 34.22445
 2018-Aug-09 06:32     09 30 04.122609 +16 59 33.96928
 2018-Aug-09 06:33     09 30 04.177705 +16 59 33.71411
 2018-Aug-09 06:34     09 30 04.232803 +16 59 33.45894
 2018-Aug-09 06:35     09 30 04.287903 +16 59 33.20378
 2018-Aug-09 06:36     09 30 04.343006 +16 59 32.94862
 2018-Aug-09 06:37     09 30 04.398110 +16 59 32.69347
 2018-Aug-09 06:38     09 30 04.453217 +16 59 32.43832
 2018-Aug-09 06:39     09 30 04.508326 +16 59 32.18318
 2018-Aug-09 06:40     09 30 04.563437 +16 59 31.92804
 2018-Aug-09 06:41     09 30 04.618550 +16 59 31.67290
 2018-Aug-09 06:42     09 30 04.673665 +16 59 31.41777
 2018-Aug-09 06:43     09 30 04.728783 +16 59 31.16265
 2018-Aug-09 06:44     09 30 04.783902 +16 59 30.90753
 2018-Aug-09 06:45     09 30 04.839024 +16 59 30.65241
 2018-Aug-09 06:46     09 30 04.894147 +16 59 30.39730
 2018-Aug-09 06:47     09 30 04.949273 +16 59 30.14219
 2018-Aug-09 06:48     09 30 05.004401 +16 59 29.88709
 2018-Aug-09 06:49     09 30 05.059531 +16 59 29.63199
 2018-Aug-09 06:50     09 30 05.114663 +16 59 29.37690
 2018-Aug-09 06:51     09 30 05.169797 +16 59 29.12181
 2018-Aug-09 06:52     09 30 05.224933 +16 59 28.86673
 2018-Aug-09 06:53     09 30 05.280071 +16 59 28.61165
 2018-Aug-09 06:54     09 30 05.335211 +16 59 28.35657
 2018-Aug-09 06:55     09 30 05.390353 +16 59 28.10151
 2018-Aug-09 06:56     09 30 05.445498 +16 59 27.84644
 2018-Aug-09 06:57     09 30 05.500644 +16 59 27.59139
 2018-Aug-09 06:58     09 30 05.555792 +16 59 27.33633
 2018-Aug-09 06:59     09 30 05.610942 +16 59 27.08129
 2018-Aug-09 07:00     09 30 05.666095 +16 59 26.82624
 2018-Aug-09 07:01     09 30 05.721249 +16 59 26.57121
 2018-Aug-09 07:02     09 30 05.776405 +16 59 26.31618
 2018-Aug-09 07:03     09 30 05.831564 +16 59 26.06115
 2018-Aug-09 07:04     09 30 05.886724 +16 59 25.80613
 2018-Aug-09 07:05     09 30 05.941886 +16 59 25.55111
 2018-Aug-09 07:06     09 30 05.997051 +16 59 25.29610
